ONEWEB-0136             
1 47282U 20100AA  25343.13230650  .00000308  00000+0  82162-3 0  9995
2 47282  87.8943  28.4001 0001776  83.9051 276.2279 13.12443450239732
ONEWEB-0137             
1 47283U 20100AB  25343.16635469 -.00000383  00000+0 -11007-2 0  9990
2 47283  87.8946  28.3993 0001542 101.0032 259.1270 13.12445231239647
ONEWEB-0138             
1 47284U 20100AC  25343.14528253 -.00000135  00000+0 -41098-3 0  9990
2 47284  87.8942  28.4121 0001720  91.5356 268.5970 13.12442785239729
ONEWEB-0139             
1 47285U 20100AD  25343.18434134 -.00001235  00000+0 -34683-2 0  9992
2 47285  87.8945  28.3925 0002233  92.7369 267.4015 13.12453161239808
ONEWEB-0140             
1 47286U 20100AE  25343.13879885  .00000078  00000+0  18281-3 0  9993
2 47286  87.8942  28.3896 0001728  92.7530 267.3796 13.12442754239767
ONEWEB-0141             
1 47287U 20100AF  25343.18406713  .00000247  00000+0  65096-3 0  9999
2 47287  87.8938  28.3899 0001490 105.4936 254.6357 13.12445865239751
ONEWEB-0142             
1 47288U 20100AG  25343.17298593 -.00005180  00000+0 -14439-1 0  9990
2 47288  87.8943  28.4145 0001533  94.8607 265.2696 13.12459370239746
ONEWEB-0143             
1 47289U 20100AH  25343.18258090  .00000167  00000+0  42914-3 0  9999
2 47289  87.8943  28.4089 0001753  99.1109 261.0218 13.12443803239729
